{
  "links" : {
    "next" : "https://api.nasa.gov/neo/rest/v1/neo/browse?page=19&size=20&api_key=jqAGvNAwUIBu4fl9FSOjdm3V4F7hIglRzI6pdX9d",
    "prev" : "https://api.nasa.gov/neo/rest/v1/neo/browse?page=17&size=20&api_key=jqAGvNAwUIBu4fl9FSOjdm3V4F7hIglRzI6pdX9d",
    "self" : "https://api.nasa.gov/neo/rest/v1/neo/browse?page=18&size=20&api_key=jqAGvNAwUIBu4fl9FSOjdm3V4F7hIglRzI6pdX9d"
  },
  "page" : {
    "size" : 20,
    "total_elements" : 20750,
    "total_pages" : 1038,
    "number" : 18
  },
  "near_earth_objects" : [ {
    "links" : {
      "self" : "https://api.nasa.gov/neo/rest/v1/neo/3266034?api_key=jqAGvNAwUIBu4fl9FSOjdm3V4F7hIglRzI6pdX9d"
    },
    "neo_reference_id" : "3266034",
    "name" : "(2005 BN1)",
    "designation" : "2005 BN1",
    "nasa_jpl_url" : "http://ssd.jpl.nasa.gov/sbdb.cgi?sstr=3266034",
    "absolute_magnitude_h" : 24.0,
    "estimated_diameter" : {
      "kilometers" : {
        "estimated_diameter_min" : 0.0421264611,
        "estimated_diameter_max" : 0.0941976306
      },
      "meters" : {
        "estimated_diameter_min" : 42.1264610556,
        "estimated_diameter_max" : 94.1976305719
      },
      "miles" : {
        "estimated_diameter_min" : 0.0261761612,
        "estimated_diameter_max" : 0.0585316759
      },
      "feet" : {
        "estimated_diameter_min" : 138.2101784897,
        "estimated_diameter_max" : 309.0473542854
      }
    },
    "is_potentially_hazardous_asteroid" : false,
    "close_approach_data" : [ {
      "close_approach_date" : "2005-01-10",
      "epoch_date_close_approach" : 1105344000000,
      "relative_velocity" : {
        "kilometers_per_second" : "13.6771514019",
        "kilometers_per_hour" : "49237.7450468216",
        "miles_per_hour" : "30594.4199708987"
      },
      "miss_distance" : {
        "astronomical" : "0.0239751318",
        "lunar" : "9.3263263702",
        "kilometers" : "3586628.75",
        "miles" : "2228627.75"
      },
      "orbiting_body" : "Earth"
    } ],
    "orbital_data" : {
      "orbit_id" : "11",
      "orbit_determination_date" : "2017-04-06 09:11:33",
      "first_observation_date" : "2005-01-16",
      "last_observation_date" : "2005-02-03",
      "data_arc_in_days" : 18,
      "observations_used" : 38,
      "orbit_uncertainty" : "8",
      "minimum_orbit_intersection" : ".0201576",
      "jupiter_tisserand_invariant" : "3.874",
      "epoch_osculation" : "2453391.5",
      "eccentricity" : ".5552597661221111",
      "semi_major_axis" : "1.790948316047766",
      "inclination" : "6.78718606321481",
      "ascending_node_longitude" : "300.8375343128379",
      "orbital_period" : "875.4331869423424",
      "perihelion_distance" : ".7965067729422945",
      "perihelion_argument" : "107.4822308757476",
      "aphelion_distance" : "2.785389859153237",
      "perihelion_time" : "2453338.859763454208",
      "mean_anomaly" : "21.64698053391621",
      "mean_motion" : ".4112249859493963",
      "equinox" : "J2000",
      "orbit_class" : {
        "orbit_class_type" : "APO",
        "orbit_class_range" : "a (semi-major axis) > 1.0 AU; q (perihelion) < 1.017 AU",
        "orbit_class_description" : "Near-Earth asteroid orbits which cross the Earth’s orbit similar to that of 1862 Apollo"
      }
    },
    "is_sentry_object" : false
  }, {
    "links" : {
      "self" : "https://api.nasa.gov/neo/rest/v1/neo/3267067?api_key=jqAGvNAwUIBu4fl9FSOjdm3V4F7hIglRzI6pdX9d"
    },
    "neo_reference_id" : "3267067",
    "name" : "(2005 CM)",
    "designation" : "2005 CM",
    "nasa_jpl_url" : "http://ssd.jpl.nasa.gov/sbdb.cgi?sstr=3267067",
    "absolute_magnitude_h" : 23.7,
    "estimated_diameter" : {
      "kilometers" : {
        "estimated_diameter_min" : 0.0483676488,
        "estimated_diameter_max" : 0.1081533507
      },
      "meters" : {
        "estimated_diameter_min" : 48.3676488219,
        "estimated_diameter_max" : 108.1533506775
      },
      "miles" : {
        "estimated_diameter_min" : 0.0300542543,
        "estimated_diameter_max" : 0.0672033557
      },
      "feet" : {
        "estimated_diameter_min" : 158.6865169607,
        "estimated_diameter_max" : 354.8338390368
      }
    },
    "is_potentially_hazardous_asteroid" : false,
    "close_approach_data" : [ {
      "close_approach_date" : "2005-01-15",
      "epoch_date_close_approach" : 1105776000000,
      "relative_velocity" : {
        "kilometers_per_second" : "6.9558225845",
        "kilometers_per_hour" : "25040.9613042585",
        "miles_per_hour" : "15559.4795393044"
      },
      "miss_distance" : {
        "astronomical" : "0.0629588506",
        "lunar" : "24.4909934998",
        "kilometers" : "9418510",
        "miles" : "5852391"
      },
      "orbiting_body" : "Earth"
    } ],
    "orbital_data" : {
      "orbit_id" : "10",
      "orbit_determination_date" : "2017-04-06 09:11:30",
      "first_observation_date" : "2005-02-02",
      "last_observation_date" : "2005-02-06",
      "data_arc_in_days" : 4,
      "observations_used" : 39,
      "orbit_uncertainty" : "8",
      "minimum_orbit_intersection" : ".0465933",
      "jupiter_tisserand_invariant" : "3.394",
      "epoch_osculation" : "2453405.5",
      "eccentricity" : ".5474256595655526",
      "semi_major_axis" : "2.275115584374664",
      "inclination" : ".796765237599213",
      "ascending_node_longitude" : "295.6563213107693",
      "orbital_period" : "1253.440216480934",
      "perihelion_distance" : "1.029658935010496",
      "perihelion_argument" : "166.2464560017185",
      "aphelion_distance" : "3.520572233738832",
      "perihelion_time" : "2453376.076829233986",
      "mean_anomaly" : "8.450615622900083",
      "mean_motion" : ".2872095495792447",
      "equinox" : "J2000",
      "orbit_class" : {
        "orbit_class_type" : "AMO",
        "orbit_class_range" : "1.017 AU < q (perihelion) < 1.3 AU",
        "orbit_class_description" : "Near-Earth asteroid orbits similar to that of 1221 Amor"
      }
    },
    "is_sentry_object" : false
  } ]
}